ORBCOMM FM115           
1 41186U 15081H   25217.57811221  .00000666  00000+0  16430-3 0  9993
2 41186  46.9978 164.6411 0001650 290.4758  69.5952 14.62568788515007
ORBCOMM FM108           
1 41187U 15081J   25217.43531178  .00000371  00000+0  11615-3 0  9992
2 41187  47.0034 234.3858 0002623 207.7772 152.2974 14.58217214513980
ORBCOMM FM117           
1 41188U 15081K   25217.33296225  .00000281  00000+0  96952-4 0  9991
2 41188  46.9997 233.6140 0003353 211.8348 148.2336 14.58219736514012
ORBCOMM FM116           
1 41189U 15081L   25217.59380752  .00000725  00000+0  19162-3 0  9999
2 41189  47.0036 322.2130 0001348 357.7346   2.3533 14.58301049512862
